HAWK-13C                
1 67393U 26004AG  26068.90208201  .00006606  00000+0  32609-3 0  9994
2 67393  97.4593  69.4519 0004688 342.6520  17.4553 15.18214635  8693
HAWK-13B                
1 67396U 26004AK  26068.90196948  .00003406  00000+0  16977-3 0  9996
2 67396  97.4526  69.3757 0005755 335.2738  24.8219 15.18214359  8694
