[{"OBJECT_NAME":"HAWK-13C","OBJECT_ID":"2026-004AG","EPOCH":"2026-03-09T21:38:59.886528","MEAN_MOTION":15.18214635,"ECCENTRICITY":0.00046883,"INCLINATION":97.4593,"RA_OF_ASC_NODE":69.4519,"ARG_OF_PERICENTER":342.652,"MEAN_ANOMALY":17.4553,"EPHEMERIS_TYPE":0,"CLASSIFICATION_TYPE":"U","NORAD_CAT_ID":67393,"ELEMENT_SET_NO":999,"REV_AT_EPOCH":869,"BSTAR":0.00032608519,"MEAN_MOTION_DOT":6.606e-5,"MEAN_MOTION_DDOT":0},{"OBJECT_NAME":"HAWK-13B","OBJECT_ID":"2026-004AK","EPOCH":"2026-03-09T21:38:50.163072","MEAN_MOTION":15.18214359,"ECCENTRICITY":0.00057548,"INCLINATION":97.4526,"RA_OF_ASC_NODE":69.3757,"ARG_OF_PERICENTER":335.2738,"MEAN_ANOMALY":24.8219,"EPHEMERIS_TYPE":0,"CLASSIFICATION_TYPE":"U","NORAD_CAT_ID":67396,"ELEMENT_SET_NO":999,"REV_AT_EPOCH":869,"BSTAR":0.00016976548,"MEAN_MOTION_DOT":3.406e-5,"MEAN_MOTION_DDOT":0}]
